0 COSMOS 1299 FUEL CORE
1 12808U 81081C   19297.67569920 -.00000092 +00000-0 -28596-5 0  9997
2 12808 065.1180 032.9007 0037981 271.1511 197.0367 13.88601371935322
0 COSMOS 1299 FUEL CORE
1 12808U 81081C   19298.82412220 -.00000098  00000-0 -71349-5 0  9995
2 12808  65.1181  29.9169 0037982 270.9037 177.7979 13.88601347935719
0 COSMOS 1191 DEB
1 12817U 80057E   19297.31640612 -.00000443 +00000-0 +00000-0 0  9992
2 12817 064.9516 256.9742 6194998 051.0183 349.5332 01.99798492200695
0 COSMOS 1305
1 12818U 81088A   19297.16534205 -.00000042 +00000-0 -50782-3 0  9992
2 12818 063.0959 223.5222 4677450 217.7616 097.9239 05.46078095760157
0 DELTA 1 DEB
1 12825U 78026EW  19297.91123249 -.00000074 +00000-0 -20755-4 0  9996
2 12825 099.3936 081.8536 0060587 210.0163 302.4045 13.93826096966713
0 SL-6 R/B(2)
1 12827U 81088F   19297.18348417 -.00000025 +00000-0 +00000-0 0  9997
2 12827 063.2800 200.5265 4558221 206.0547 342.2475 05.48802111763904
0 COSMOS 1191 DEB
1 12834U 80057F   19297.64358293 +.00000866 +00000-0 +00000-0 0  9996
2 12834 066.5592 282.1716 5661476 059.5419 043.6125 02.00211266192674
0 COSMOS 1308
1 12835U 81091A   19297.73522557 +.00000021 +00000-0 +63530-5 0  9997
2 12835 082.9218 180.1642 0028475 031.2469 027.9436 13.75403776911863
0 COSMOS 1308
1 12835U 81091A   19298.82517581  .00000027  00000-0  12563-4 0  9994
2 12835  82.9217 179.3540 0028417  28.2877  24.6990 13.75403775912223
0 SL-8 R/B
1 12836U 81091B   19298.13647674 -.00000010  00000-0 -25503-4 0  9998
2 12836  82.9178 157.8421 0022105 310.6031 160.7692 13.76518714913646
0 SL-8 R/B
1 12836U 81091B   19297.76463175 -.00000019 +00000-0 -34605-4 0  9990
2 12836 082.9178 158.1192 0022133 311.6791 118.0666 13.76518667297054
0 AUREOLE 3
1 12848U 81094A   19297.89534010 +.00000960 +00000-0 +54033-4 0  9997
2 12848 082.4808 260.7551 0596646 093.5233 273.4347 14.24585729911910
0 AUREOLE 3
1 12848U 81094A   19298.45723728  .00001092  00000-0  61878-4 0  9998
2 12848  82.4809 260.2704 0596641  91.8309 275.1272 14.24587383911998
0 SL-14 R/B
1 12849U 81094B   19298.42168192  .00000141  00000-0  12355-4 0  9994
2 12849  82.4954 226.3559 0900053 261.2424  88.5890 13.50576772858022
0 SL-14 R/B
1 12849U 81094B   19297.90309388 +.00000135 +00000-0 +11856-4 0  9998
2 12849 082.4953 226.7540 0900050 262.6404 087.1721 13.50576622857970
0 SL-12 R/B(2)
1 12850U 81069F   19297.87684402 -.00000177 +00000-0 +00000-0 0  9993
2 12850 013.3861 322.9016 0019884 121.1927 241.6948 00.97700629092517
0 SL-12 R/B(2)
1 12851U 81061F   19297.51299457 -.00000369 +00000-0 +00000-0 0  9992
2 12851 011.4430 316.6920 0004953 006.2353 353.1825 01.01012334023196
0 SL-12 R/B(2)
1 12851U 81061F   19298.04503491 -.00000371  00000-0  00000+0 0  9999
2 12851  11.4420 316.6859 0004961   6.0713 186.8288  1.01012116 99536
0 SBS 2
1 12855U 81096A   19297.41170194 -.00000122 +00000-0 +00000-0 0  9996
2 12855 013.8799 341.2699 0003292 195.5100 168.2314 01.00166360094305
0 COSMOS 970 DEB
1 12860U 77121AN  19297.92690881 +.00000016 +00000-0 +11477-3 0  9996
2 12860 065.8065 130.9774 0121453 043.4543 064.7405 13.62639506980632
0 COSMOS 970 DEB
1 12861U 77121AP  19297.89758300 -.00000065 +00000-0 +16034-4 0  9994
2 12861 065.7702 147.8367 0096221 015.6584 094.7340 13.39364758945747
0 COSMOS 970 DEB
1 12861U 77121AP  19298.05845479 -.00000029  00000-0  80354-4 0  9993
2 12861  65.7711 147.4621 0096254  15.6026 150.3929 13.39364812946039
0 COSMOS 970 DEB
1 12862U 77121AQ  19297.90832569 +.00000169 +00000-0 +14013-3 0  9995
2 12862 066.2102 224.9501 0155370 207.2088 214.6739 14.05512073009064
0 COSMOS 970 DEB
1 12864U 77121AS  19297.87808130 +.00000239 +00000-0 +25986-3 0  9999
2 12864 065.8329 268.5500 0092646 135.4151 247.7366 13.88291373980949
0 COSMOS 970 DEB
1 12866U 77121AU  19297.84773476 -.00000062 +00000-0 +20323-4 0  9998
2 12866 065.8187 054.9165 0096318 083.1774 359.7429 13.57841344974400
0 COSMOS 970 DEB
1 12867U 77121AV  19297.92859706 -.00000051 +00000-0 +40362-4 0  9992
2 12867 065.9493 213.4256 0093685 271.7780 160.1039 13.35977934962006
0 COSMOS 970 DEB
1 12867U 77121AV  19298.16204282 -.00000057  00000-0  29289-4 0  9993
2 12867  65.9493 212.8887 0093683 271.6759 202.8552 13.35977874996590
0 COSMOS 970 DEB
1 12868U 77121AW  19297.78023894 +.00000316 +00000-0 +43935-3 0  9999
2 12868 065.7660 065.7179 0063032 174.1701 334.5437 13.70620628078938
0 COSMOS 970 DEB
1 12869U 77121AX  19297.71112601 +.00000218 +00000-0 +31208-3 0  9999
2 12869 065.7906 179.8310 0082514 034.7902 358.8780 13.73595974085257
0 COSMOS 970 DEB
1 12869U 77121AX  19298.65717167  .00000220  00000-0  31425-3 0  9995
2 12869  65.7905 177.4953 0082617  34.3378 357.0177 13.73596518 86011
0 COSMOS 970 DEB
1 12870U 77121AY  19298.85293223  .00000256  00000-0  28695-3 0  9995
2 12870  65.7245 160.9195 0112039 119.3751 330.4071 13.84670270 93247
0 COSMOS 970 DEB
1 12870U 77121AY  19297.91492675 +.00000254 +00000-0 +28576-3 0  9999
2 12870 065.7246 163.2854 0112039 119.8684 334.5830 13.84669652092986
0 COSMOS 1312
1 12879U 81098A   19297.92240043 +.00000024 +00000-0 +10189-3 0  9993
2 12879 082.5964 274.6859 0007620 016.3215 039.5472 12.42351030268149
0 SL-14 R/B
1 12880U 81098B   19297.92259144 +.00000016 +00000-0 +45186-4 0  9994
2 12880 082.5976 266.2649 0006505 316.3551 111.4981 12.42843313726891
0 THOR DELTA 1 R/B
1 12889U 81100C   19297.84254819 +.00000048 +00000-0 +37947-4 0  9993
2 12889 099.9057 231.5809 1316952 115.4090 322.4036 12.18002710685656
0 RADUGA 10
1 12897U 81102A   19297.88436918 -.00000017 +00000-0 +00000-0 0  9993
2 12897 012.0351 319.4195 0002072 148.9651 307.6132 01.00273944093002
0 RADUGA 10
1 12897U 81102A   19298.10076764 -.00000017  00000-0  00000+0 0  9997
2 12897  12.0348 319.4171 0002070 149.1324  25.5664  1.00273987 93069
0 SL-3 R/B
1 12904U 81103B   19298.79951949  .00000035  00000-0  71944-6 0  9990
2 12904  81.1790  12.3157 0029597 111.5842 248.8539 15.05707502622312
0 SL-3 R/B
1 12904U 81103B   19297.80270276 -.00000106 +00000-0 -89103-5 0  9994
2 12904 081.1792 013.4547 0029583 114.8101 245.6204 15.05707352621943
0 COSMOS 931 DEB
1 12906U 77068F   19297.39269729 -.00000783 +00000-0 +00000-0 0  9990
2 12906 063.0191 232.2981 6814675 043.2241 121.1871 02.01230398287477
0 COSMOS 931 DEB
1 12906U 77068F   19298.40704069 -.00000790  00000-0  00000+0 0  9991
2 12906  63.0173 232.1876 6815328  43.2248 136.0146  2.01228538287789
0 TITAN 3C TRANSTAGE R/B
1 12932U 81107C   19296.75490436 +.00000047 +00000-0 +00000-0 0  9990
2 12932 006.4505 345.6937 1021314 095.2720 276.3183 00.99590704002031
0 COSMOS 1317
1 12933U 81108A   19298.15652241 -.00000030  00000-0  00000+0 0  9994
2 12933  71.5165 206.3590 5021876  30.9866 112.0012  2.00315996277650
0 SL-6 R/B(2)
1 12940U 81108D   19297.76278959 -.00000708  00000-0  00000+0 0  9990
2 12940  68.4668  69.1511 6172647  36.2569 352.7282  1.99105313276199
0 COSMOS 970 DEB
1 12942U 77121AZ  19298.52325104  .00000029  00000-0  18940-3 0  9993
2 12942  65.8328  18.5045 0116173 244.1964 210.8714 13.36763074869370
0 COSMOS 970 DEB
1 12942U 77121AZ  19297.71398183 +.00000040 +00000-0 +20937-3 0  9992
2 12942 065.8327 020.3771 0116170 244.5329 276.4246 13.36762959869056
0 COSMOS 1275 DEB
1 12947U 81053EB  19297.89211899 +.00000114 +00000-0 +15335-3 0  9991
2 12947 083.0961 345.8356 0204788 133.6054 348.3828 13.42495014855240
0 COSMOS 1275 DEB
1 12949U 81053ED  19297.87257413 +.00000226 +00000-0 +16215-3 0  9995
2 12949 082.8440 251.7661 0028144 195.1887 194.0144 13.92624153922641
0 COSMOS 1275 DEB
1 12949U 81053ED  19298.88499090  .00000233  00000-0  16765-3 0  9994
2 12949  82.8441 250.9828 0028209 192.2049 229.7944 13.92624672923065
0 COSMOS 1275 DEB
1 12950U 81053EE  19297.65112153 +.00000293 +00000-0 +14838-3 0  9997
2 12950 083.0144 180.2042 0054781 334.5575 053.9895 14.12301072957666
0 COSMOS 1275 DEB
1 12962U 81053EH  19297.87287660 +.00000364 +00000-0 +25202-3 0  9996
2 12962 082.9650 077.4060 0026662 331.0562 189.5885 13.96380549921192
0 COSMOS 1275 DEB
1 12962U 81053EH  19298.87462719  .00000367  00000-0  25402-3 0  9992
2 12962  82.9652  76.6392 0026637 327.9826 185.5348 13.96381248921548
0 COSMOS 1275 DEB
1 12963U 81053EJ  19298.18894434  .00000132  00000-0  11007-3 0  9996
2 12963  82.9488 190.9159 0022552 230.3203 245.3394 13.81165980910861
0 COSMOS 1275 DEB
1 12963U 81053EJ  19297.74177347 +.00000134 +00000-0 +11192-3 0  9991
2 12963 082.9488 191.2502 0022545 231.6521 181.8469 13.81165911910597
0 COSMOS 1275 DEB
1 12964U 81053EK  19297.86576483 +.00000042 +00000-0 +24547-4 0  9996
2 12964 082.9422 129.3514 0039957 126.0469 298.3323 13.80172121913983
0 COSMOS 1275 DEB
1 12966U 81053EM  19297.64067507 +.00000273 +00000-0 +16677-3 0  9996
2 12966 082.9478 350.1803 0032827 213.3245 302.9769 14.02335818924226
0 COSMOS 1275 DEB
1 12966U 81053EM  19298.47864909  .00000294  00000-0  18059-3 0  9998
2 12966  82.9477 349.5308 0032899 210.8922 213.3971 14.02336298924559
0 COSMOS 1320
1 12975U 81116A   19297.42045819 +.00000001 +00000-0 +13841-3 0  9993
2 12975 073.9798 285.1549 0096484 166.3645 346.7757 12.28012577699126
0 COSMOS 1321
1 12976U 81116B   19297.88908994 -.00000008 +00000-0 +62108-4 0  9995
2 12976 073.9797 272.5276 0093919 155.6410 229.1768 12.28366305699682
0 COSMOS 1321
1 12976U 81116B   19298.86560530 -.00000021  00000-0 -49426-4 0  9998
2 12976  73.9798 271.2777 0093894 154.2372 227.4437 12.28366310700031
0 COSMOS 1322
1 12977U 81116C   19297.94482199 -.00000014 +00000-0 +55953-5 0  9995
2 12977 073.9803 261.4658 0092572 140.0668 276.7924 12.28695852700125
